YAOGAN 5                
1 33456U 08064A   09011.51296296  .00000484  00000-0  22308-4 0   884
2 33456  97.3939  88.7874 0006062 193.2489 356.1670 15.24880771  4178
CZ-4B R/B               
1 33457U 08064B   09011.35145191  .00003344  00000-0  56246-4 0   813
2 33457  97.2747  89.1015 0092782 256.0563 169.6128 15.47740918  4204
ARIANE 5 R/B            
1 33459U 08065A   09010.77833046  .00000006  00000-0  00000+0 0   267
2 33459   0.0487 216.8710 0000411 171.7320   3.0066  1.00272661   412
EUTELSAT W2M            
1 33460U 08065B   09011.69034538  .00000008  00000-0  00000+0 0   239
2 33460   0.1138 259.6722 0005291  79.6083  22.3032  1.00273019   289
ARIANE 5 DEB [SYLDA]    
1 33461U 08065C   09011.12872791  .00006895  00000-0  26688-2 0   175
2 33461   3.9021 243.0933 7272200 195.3648 116.8546  2.28368630   485
HOT BIRD 9              
1 33462U 08065D   09011.05110215  .00001040  00000-0  33741-3 0   125
2 33462   3.9129 240.1465 7270862 198.2409 106.6875  2.28946669   477
FENGYUN 2E              
1 33463U 08066A   09011.07942714 -.00000355  00000-0  00000+0 0   224
2 33463   2.6065 284.7469 0004593 337.5320   0.6977  1.00274180   264
CZ-3A R/B               
1 33464U 08066B   09010.39467885 -.00000029  00000-0  23170-3 0   247
2 33464  24.9094  88.8073 7201462 192.1690 130.0428  2.30941696   349
FENGYUN 2E AKM          
1 33465U 08066C   09011.51479038 -.00000151  00000-0  00000+0 0   100
2 33465   2.6676 284.6095 0040217 327.7859 278.1549  1.02095447   197
COSMOS 2447 [GLONASS-M] 
1 33466U 08067A   09011.63760741 -.00000022  00000-0  00000+0 0   375
2 33466  64.8038 289.7017 0003973 271.5239 221.3740  2.13101837   362
COSMOS 2448 [GLONASS-M] 
1 33467U 08067B   09011.58901285 -.00000022  00000-0  00000+0 0   381
2 33467  64.7879 289.6914 0051329 238.6804 264.0457  2.14683056   380
COSMOS 2449 [GLONASS-M] 
1 33468U 08067C   09011.09970106 -.00000021  00000-0  00000+0 0   431
2 33468  64.7953 289.7045 0006201 300.5881 184.4758  2.13160360   367
SL-12 R/B(2)            
1 33471U 08067F   09010.23541623 -.00000021  00000-0  00000+0 0   180
2 33471  64.7954 289.7404 0006362 227.4276 275.0213  2.13248087   337
SL-12 R/B(AUX MOTOR)    
1 33472U 08067G   08361.03725588 -.00000125  00000-0  00000+0 0    18
2 33472  64.9627 291.0600 5828513 191.9809 144.1846  4.13106752    10
SL-12 R/B(AUX MOTOR)    
1 33473U 08067H   09011.11052133  .00000001  00000-0  61760-4 0    95
2 33473  64.7194 284.0652 5804521 192.8032 141.7560  4.23115755   704
